{
  "version": 0.6,
  "generator": "Overpass API 0.7.61.8 b1080abd",
  "osm3s": {
    "timestamp_osm_base": "2026-01-07T11:25:30Z",
    "copyright": "The data included in this document is from www.openstreetmap.org. The data is made available under ODbL."
  },
  "elements": [
    {
      "type": "node",
      "id": 12003646557,
      "lat": 53.4740199,
      "lon": -2.2424176,
      "tags": {
        "amenity": "cafe",
        "brand": "Costa Coffee",
        "brand:wikidata": "Q608845",
        "check_date": "2024-06-23",
        "cuisine": "coffee_shop",
        "internet_access": "wlan",
        "internet_access:fee": "customers",
        "level": "0",
        "name": "Costa",
        "opening_hours": "Mo-Fr 06:00-19:00; Sa 07:00-18:00; Su 08:30-17:00",
        "outdoor_seating": "no",
        "takeaway": "only",
        "wheelchair": "yes"
      }
    },
    {
      "type": "node",
      "id": 347023161,
      "lat": 53.4760849,
      "lon": -2.2422178,
      "tags": {
        "addr:city": "Manchester",
        "addr:country": "GB",
        "addr:housenumber": "131-133",
        "addr:postcode": "M1 4PY",
        "addr:street": "Portland Street",
        "amenity": "cafe",
        "level": "0",
        "name": "Blank Street"
      }
    },
    {
      "type": "node",
      "id": 1531265532,
      "lat": 53.4787809,
      "lon": -2.2422937,
      "tags": {
        "addr:city": "Manchester",
        "addr:country": "GB",
        "addr:housenumber": "80",
        "addr:postcode": "M2 3FX",
        "addr:street": "Mosley Street",
        "amenity": "cafe",
        "brand": "Caff\u00e8 Nero",
        "brand:wikidata": "Q675808",
        "brand:wikipedia": "en:Caff\u00e8 Nero",
        "check_date": "2024-08-22",
        "cuisine": "coffee_shop",
        "diet:vegetarian": "yes",
        "fhrs:id": "1820881",
        "name": "Caff\u00e8 Nero",
        "opening_hours": "Mo-Fr 06:30-19:00; Sa 07:30-19:00",
        "payment:cash": "no",
        "payment:debit_cards": "yes",
        "takeaway": "yes",
        "toilets:unisex": "yes",
        "website": "https://www.caffenero.com/uk/stores/manchester-mosley-st",
        "wheelchair": "yes"
      }
    },
    {
      "type": "node",
      "id": 2690870108,
      "lat": 53.4789026,
      "lon": -2.2421239,
      "tags": {
        "addr:city": "Manchester",
        "addr:housenumber": "74",
        "addr:postcode": "M2 3LW",
        "addr:street": "Mosley Street",
        "amenity": "cafe",
        "fhrs:id": "1821840",
        "name": "The Vienna Coffee House",
        "outdoor_seating": "no",
        "smoking": "no",
        "wheelchair": "yes"
      }
    },
    {
      "type": "node",
      "id": 2721293617,
      "lat": 53.4742595,
      "lon": -2.2413355,
      "tags": {
        "addr:city": "Manchester",
        "addr:country": "GB",
        "addr:housenumber": "1-3",
        "addr:postcode": "M1 6FU",
        "addr:street": "Station Approach",
        "amenity": "cafe",
        "cuisine": "coffee_shop",
        "fhrs:id": "1819454",
        "internet_access": "no",
        "internet_access:fee": "no",
        "name": "Java Bar Espresso",
        "outdoor_seating": "yes",
        "smoking": "separated",
        "takeaway": "yes",
        "wheelchair": "limited"
      }
    },
    {
      "type": "node",
      "id": 4169291852,
      "lat": 53.4756928,
      "lon": -2.2418362,
      "tags": {
        "addr:city": "Manchester",
        "addr:country": "GB",
        "addr:housenumber": "71-73",
        "addr:postcode": "M1 6EQ",
        "addr:street": "Oxford Street",
        "amenity": "cafe",
        "brand": "Caff\u00e8 Nero",
        "brand:wikidata": "Q675808",
        "brand:wikipedia": "en:Caff\u00e8 Nero",
        "check_date": "2024-12-22",
        "check_date:opening_hours": "2024-08-22",
        "cuisine": "coffee_shop",
        "level": "0",
        "name": "Caff\u00e8 Nero",
        "opening_hours": "Mo-Fr 06:30-20:00; Sa 07:30-20:00; Su 08:30-19:00",
        "takeaway": "yes",
        "website": "https://www.caffenero.com/uk/stores/manchester-oxford-st"
      }
    },
    {
      "type": "node",
      "id": 5628825270,
      "lat": 53.4801353,
      "lon": -2.241774,
      "tags": {
        "addr:city": "Manchester",
        "addr:housenumber": "60",
        "addr:postcode": "M2 2BQ",
        "addr:street": "Spring Gardens",
        "amenity": "cafe",
        "branch": "& Cocktails",
        "brand": "Black Sheep Coffee",
        "brand:wikidata": "Q109745011",
        "cuisine": "coffee_shop",
        "fhrs:id": "1819698",
        "name": "Black Sheep Coffee",
        "takeaway": "yes",
        "website": "https://blacksheepcoffee.co.uk/blogs/locations/spring-gardens"
      }
    },
    {
      "type": "node",
      "id": 5631281916,
      "lat": 53.4758285,
      "lon": -2.243426,
      "tags": {
        "amenity": "cafe",
        "indoor_seating": "yes",
        "name": "The Clink",
        "outdoor_seating": "no",
        "website": "https://theclinkcharity.org/"
      }
    },
    {
      "type": "node",
      "id": 6028333544,
      "lat": 53.4783861,
      "lon": -2.2436787,
      "tags": {
        "amenity": "cafe",
        "name": "The Cafe St Peter's Square"
      }
    },
    {
      "type": "node",
      "id": 9117223823,
      "lat": 53.4741351,
      "lon": -2.241966,
      "tags": {
        "amenity": "cafe",
        "changing_table": "no",
        "cuisine": "coffee_shop",
        "diet:vegan": "yes",
        "diet:vegetarian": "yes",
        "indoor_seating": "no",
        "name": "Gourmet Coffee Bar & Kitchen",
        "outdoor_seating": "no",
        "takeaway": "only",
        "website": "https://gourmetcoffeebar.co.uk/"
      }
    },
    {
      "type": "node",
      "id": 9608416990,
      "lat": 53.4791675,
      "lon": -2.2413612,
      "tags": {
        "addr:city": "Manchester",
        "addr:housenumber": "75",
        "addr:postcode": "M2 3HR",
        "addr:street": "Mosley Street",
        "amenity": "cafe",
        "cuisine": "coffee_shop",
        "fhrs:id": "1817500",
        "name": "200\u00b0 Coffee"
      }
    },
    {
      "type": "node",
      "id": 11112824000,
      "lat": 53.4779079,
      "lon": -2.2428943,
      "tags": {
        "addr:city": "Manchester",
        "addr:housenumber": "2",
        "addr:postcode": "M2 3AA",
        "addr:street": "St Peter's Square",
        "addr:unit": "2",
        "air_conditioning": "yes",
        "amenity": "cafe",
        "brand": "Black Sheep Coffee",
        "brand:wikidata": "Q109745011",
        "check_date": "2025-05-18",
        "cuisine": "coffee_shop",
        "diet:vegetarian": "yes",
        "drive_through": "no",
        "email": "bscfeedback@leavetheherdbehind.co.uk",
        "fhrs:id": "1818740",
        "indoor_seating": "yes",
        "level": "0",
        "name": "Black Sheep Coffee",
        "opening_hours": "Mo-Th 06:30-21:30; Fr 06:30-22:30; Sa 07:00-22:30; Su 07:00-21:00",
        "outdoor_seating": "yes",
        "payment:cash": "no",
        "payment:contactless": "yes",
        "payment:credit_cards": "yes",
        "payment:debit_cards": "yes",
        "payment:mastercard": "yes",
        "payment:visa": "yes",
        "ref:vatin": "GB271 427 901",
        "smoking": "outside",
        "source": "survey",
        "takeaway": "yes",
        "toilets": "yes",
        "toilets:wheelchair": "yes",
        "website": "https://blacksheepcoffee.co.uk/blogs/locations/manchester-st-peters-square",
        "wheelchair": "yes"
      }
    },
    {
      "type": "node",
      "id": 11115658149,
      "lat": 53.4759247,
      "lon": -2.2421198,
      "tags": {
        "amenity": "cafe",
        "check_date": "2023-08-15",
        "level": "0",
        "name": "Ditto Coffee"
      }
    },
    {
      "type": "node",
      "id": 12207675412,
      "lat": 53.4771199,
      "lon": -2.244223,
      "tags": {
        "addr:postcode": "M2 3WS",
        "amenity": "cafe",
        "cuisine": "italian;pizza",
        "name": "Gio's"
      }
    },
    {
      "type": "node",
      "id": 1502881764,
      "lat": 53.4730296,
      "lon": -2.2399151,
      "tags": {
        "addr:city": "Manchester",
        "addr:housenumber": "8A",
        "addr:postcode": "M1 5QA",
        "addr:street": "Oxford Road",
        "amenity": "cafe",
        "brand": "Caff\u00e8 Nero",
        "brand:wikidata": "Q675808",
        "brand:wikipedia": "en:Caff\u00e8 Nero",
        "check_date": "2024-08-22",
        "cuisine": "coffee_shop",
        "diet:vegetarian": "yes",
        "fhrs:id": "1819105",
        "internet_access": "wlan",
        "internet_access:fee": "no",
        "name": "Caff\u00e8 Nero",
        "opening_hours": "Mo-Fr 07:00-17:00; Sa,Su 09:00-16:00",
        "outdoor_seating": "no",
        "smoking": "no",
        "takeaway": "yes",
        "website": "https://www.caffenero.com/uk/stores/manchester-oxford-rd",
        "wheelchair": "yes"
      }
    },
    {
      "type": "node",
      "id": 1502881868,
      "lat": 53.4737001,
      "lon": -2.240021,
      "tags": {
        "addr:city": "Manchester",
        "addr:housenumber": "1",
        "addr:postcode": "M1 6EY",
        "addr:street": "Oxford Road",
        "amenity": "cafe",
        "brand": "Starbucks",
        "brand:wikidata": "Q37158",
        "brand:wikipedia": "en:Starbucks",
        "cuisine": "coffee_shop",
        "fhrs:id": "1819905",
        "internet_access": "wlan",
        "internet_access:fee": "no",
        "name": "Starbucks",
        "official_name": "Starbucks Coffee",
        "opening_hours": "Mo-Fr 06:30-21:00; PH,Su 07:30-20:00; Sa 08:30-21:00",
        "outdoor_seating": "yes",
        "smoking": "no",
        "takeaway": "yes",
        "website": "https://www.starbucks.com/store-locator/store/2425/manchester-oxford-st-1-5-oxford-road-manchester-eng-m-1-6-ey-gb",
        "wheelchair": "yes"
      }
    },
    {
      "type": "node",
      "id": 1921936095,
      "lat": 53.4721463,
      "lon": -2.2385334,
      "tags": {
        "amenity": "cafe",
        "cuisine": "sandwich",
        "name": "Homes4u"
      }
    },
    {
      "type": "node",
      "id": 2692939475,
      "lat": 53.4730244,
      "lon": -2.2404459,
      "tags": {
        "addr:city": "Manchester",
        "addr:postcode": "M1 5GL",
        "addr:street": "Hulme Street",
        "amenity": "cafe",
        "internet_access": "wlan",
        "internet_access:fee": "no",
        "name": "Cheeky Coffee Co.",
        "opening_hours": "Mo-Fr 07:00-18:00; Sa 08:00-12:00",
        "outdoor_seating": "no",
        "smoking": "no",
        "takeaway": "yes",
        "website": "https://cheekycoffeeco.co.uk/",
        "wheelchair": "yes"
      }
    },
    {
      "type": "node",
      "id": 9764825293,
      "lat": 53.4737017,
      "lon": -2.2391989,
      "tags": {
        "addr:city": "Manchester",
        "addr:housenumber": "60",
        "addr:postcode": "M1 7DF",
        "addr:street": "Charles Street",
        "amenity": "cafe",
        "check_date": "2025-08-01",
        "cuisine": "coffee_shop",
        "name": "Red Bean Roastery Coffee Shop",
        "opening_hours": "Mo-Su 07:00-18:00",
        "outdoor_seating": "no"
      }
    },
    {
      "type": "node",
      "id": 9778105971,
      "lat": 53.4705834,
      "lon": -2.2353647,
      "tags": {
        "amenity": "cafe",
        "construction": "yes",
        "name": "Caf\u00e9 Change",
        "opening_hours": "Mo-Fr 08:30-15:30"
      }
    },
    {
      "type": "node",
      "id": 9833951584,
      "lat": 53.4710031,
      "lon": -2.2376452,
      "tags": {
        "addr:city": "Manchester",
        "addr:housenumber": "113",
        "addr:postcode": "M1 7DU",
        "addr:street": "Oxford Road",
        "amenity": "cafe",
        "check_date": "2025-12-12",
        "check_date:diet:gluten_free": "2025-12-12",
        "diet:gluten_free": "yes",
        "diet:vegan": "only",
        "level": "-1",
        "name": "Eighth Day",
        "opening_hours": "Mo-Fr 09:30-17:30; Sa 09:30-17:30",
        "shop": "convenience",
        "toilets": "customers",
        "wheelchair": "yes"
      }
    },
    {
      "type": "node",
      "id": 11076703701,
      "lat": 53.4725095,
      "lon": -2.2389708,
      "tags": {
        "addr:city": "Manchester",
        "addr:housenumber": "2",
        "addr:postcode": "M1 7FS",
        "addr:street": "Circle Square",
        "amenity": "cafe",
        "fhrs:id": "1820550",
        "name": "Federal",
        "opening_hours": "Mo-Th 07:30-16:00; Fr 07:30-17:00; Sa 08:00-18:00; Su 08:00-17:00"
      }
    },
    {
      "type": "node",
      "id": 12248033397,
      "lat": 53.4728305,
      "lon": -2.2376066,
      "tags": {
        "amenity": "cafe",
        "name": "Tiori"
      }
    },
    {
      "type": "node",
      "id": 9525200819,
      "lat": 53.4700581,
      "lon": -2.2342268,
      "tags": {
        "amenity": "cafe",
        "brand": "Food on Campus",
        "cuisine": "coffee_shop;sandwich",
        "indoor": "yes",
        "level": "2",
        "name": "Connect Cafe",
        "opening_hours": "Mo-Fr 08:00-16:00",
        "operator": "The University of Manchester",
        "outdoor_seating": "no"
      }
    },
    {
      "type": "node",
      "id": 2641010405,
      "lat": 53.4764757,
      "lon": -2.2365213,
      "tags": {
        "addr:city": "Manchester",
        "addr:country": "GB",
        "addr:housenumber": "22",
        "addr:postcode": "M1 3WF",
        "addr:street": "Richmond Street",
        "amenity": "cafe",
        "cuisine": "tea",
        "diet:vegan": "yes",
        "diet:vegetarian": "yes",
        "email": "reservations@richmondtearooms.com",
        "fhrs:id": "1820657",
        "name": "Richmond Tea Rooms",
        "opening_hours": "Mo-Fr 10:00-19:00; Sa 09:30-20:00; Su 09:30-18:00",
        "phone": "+44 161 697 4474",
        "website": "https://www.richmondtearooms.com/",
        "wheelchair": "no"
      }
    },
    {
      "type": "node",
      "id": 2741644816,
      "lat": 53.4806222,
      "lon": -2.2391562,
      "tags": {
        "addr:city": "Manchester",
        "addr:country": "GB",
        "addr:postcode": "M1 4AH",
        "addr:street": "Piccadilly Plaza",
        "addr:unit": "B2",
        "amenity": "cafe",
        "cuisine": "bubble_tea",
        "fhrs:id": "1820740",
        "indoor_seating": "yes",
        "name": "Gong Cha City Tower",
        "old_name": "Greggs",
        "outdoor_seating": "no",
        "wheelchair": "yes"
      }
    },
    {
      "type": "node",
      "id": 2742190221,
      "lat": 53.4788018,
      "lon": -2.2383797,
      "tags": {
        "addr:city": "Manchester",
        "addr:country": "GB",
        "addr:housenumber": "32",
        "addr:postcode": "M1 4GS",
        "addr:street": "Portland Street",
        "air_conditioning": "yes",
        "amenity": "cafe",
        "brand": "Caff\u00e8 Nero",
        "brand:wikidata": "Q675808",
        "brand:wikipedia": "en:Caff\u00e8 Nero",
        "check_date": "2025-12-26",
        "check_date:diet:vegetarian": "2024-10-01",
        "check_date:opening_hours": "2025-12-26",
        "cuisine": "coffee_shop",
        "diet:vegetarian": "yes",
        "fhrs:id": "1817325",
        "indoor_seating": "yes",
        "internet_access": "wlan",
        "internet_access:fee": "no",
        "level": "0",
        "name": "Caff\u00e8 Nero",
        "opening_hours": "Mo-Fr 06:30-19:00; Sa 07:00-19:00; Su 08:00-18:00",
        "outdoor_seating": "yes",
        "payment:contactless": "yes",
        "payment:credit_cards": "yes",
        "payment:debit_cards": "yes",
        "payment:mastercard": "yes",
        "payment:visa": "yes",
        "smoking": "no",
        "takeaway": "yes",
        "toilets": "yes",
        "toilets:wheelchair": "yes",
        "website": "https://www.caffenero.com/uk/stores/manchester-portland-st",
        "wheelchair": "yes"
      }
    },
    {
      "type": "node",
      "id": 3560469996,
      "lat": 53.4805682,
      "lon": -2.2407825,
      "tags": {
        "addr:city": "Manchester",
        "addr:country": "GB",
        "addr:housename": "York House",
        "addr:housenumber": "20",
        "addr:postcode": "M2 3BB",
        "addr:street": "York Street",
        "amenity": "cafe",
        "cuisine": "american",
        "fhrs:id": "1817375",
        "name": "Moose Coffee",
        "website": "http://www.moosecoffee.co.uk/",
        "wheelchair": "yes"
      }
    },
    {
      "type": "node",
      "id": 3675019125,
      "lat": 53.4778497,
      "lon": -2.2404106,
      "tags": {
        "addr:city": "Manchester",
        "addr:country": "GB",
        "addr:housenumber": "93",
        "addr:postcode": "M1 4HT",
        "addr:street": "Princess Street",
        "amenity": "cafe",
        "brand": "Chatime",
        "brand:en": "Chatime",
        "brand:wikidata": "Q16829306",
        "brand:wikipedia": "en:Chatime",
        "brand:zh": "\u65e5\u51fa\u8336\u592a",
        "check_date": "2023-08-14",
        "cuisine": "bubble_tea",
        "name": "Chatime",
        "name:en": "Chatime",
        "name:zh": "\u65e5\u51fa\u8336\u592a",
        "takeaway": "yes",
        "wheelchair": "no"
      }
    },
    {
      "type": "node",
      "id": 3675022126,
      "lat": 53.4782915,
      "lon": -2.2410918,
      "tags": {
        "addr:city": "Manchester",
        "addr:country": "GB",
        "addr:housename": "The Arthouse",
        "addr:housenumber": "43",
        "addr:postcode": "M1 4AB",
        "addr:street": "George Street",
        "amenity": "cafe",
        "cuisine": "thai",
        "fhrs:id": "1821273",
        "name": "ICFT",
        "outdoor_seating": "no",
        "smoking": "no",
        "takeaway": "yes",
        "wheelchair": "no"
      }
    },
    {
      "type": "node",
      "id": 3675037326,
      "lat": 53.4782086,
      "lon": -2.2411347,
      "tags": {
        "addr:city": "Manchester",
        "addr:country": "GB",
        "addr:housenumber": "83",
        "addr:postcode": "M1 4HH",
        "addr:street": "Princess Street",
        "amenity": "cafe",
        "cuisine": "coffee_shop",
        "internet_access": "wlan",
        "internet_access:fee": "no",
        "name": "Chris's Corner",
        "outdoor_seating": "no",
        "smoking": "no",
        "takeaway": "yes",
        "wheelchair": "no"
      }
    },
    {
      "type": "node",
      "id": 6491071390,
      "lat": 53.4803365,
      "lon": -2.2380498,
      "tags": {
        "addr:city": "Manchester",
        "addr:postcode": "M1 4AJ",
        "addr:street": "Piccadilly Plaza",
        "addr:unit": "Unit E1A",
        "amenity": "cafe",
        "brand": "Starbucks",
        "brand:wikidata": "Q37158",
        "brand:wikipedia": "en:Starbucks",
        "cuisine": "coffee_shop",
        "fhrs:id": "1025229",
        "indoor_seating": "yes",
        "name": "Starbucks",
        "official_name": "Starbucks Coffee",
        "outdoor_seating": "no",
        "takeaway": "yes",
        "website": "https://www.starbucks.com/store-locator/store/1020163/manchester-city-tower-office-parker-street-unit-e-1-a-city-tower-manchester-eng"
      }
    },
    {
      "type": "node",
      "id": 6535193742,
      "lat": 53.4795808,
      "lon": -2.2383325,
      "tags": {
        "addr:city": "Manchester",
        "addr:country": "GB",
        "addr:housenumber": "7",
        "addr:postcode": "M1 4JB",
        "addr:street": "New York Street",
        "amenity": "cafe",
        "name": "Department of Coffee And Social Affairs"
      }
    },
    {
      "type": "node",
      "id": 6566056736,
      "lat": 53.4778096,
      "lon": -2.239921,
      "tags": {
        "addr:city": "Manchester",
        "addr:country": "GB",
        "addr:housenumber": "84",
        "addr:postcode": "M1 4GX",
        "addr:street": "Portland Street",
        "amenity": "cafe",
        "brand": "Happy Lemon",
        "brand:wikidata": "Q109968422",
        "cuisine": "bubble_tea",
        "fhrs:id": "1819259",
        "indoor_seating": "yes",
        "name": "Happy Lemon",
        "outdoor_seating": "no",
        "takeaway": "yes"
      }
    },
    {
      "type": "node",
      "id": 9111091406,
      "lat": 53.4755173,
      "lon": -2.2387832,
      "tags": {
        "amenity": "cafe",
        "check_date:opening_hours": "2023-07-30",
        "cuisine": "coffee_shop",
        "indoor_seating": "yes",
        "name": "Foundation Coffee House",
        "opening_hours:signed": "no",
        "outdoor_seating": "no"
      }
    },
    {
      "type": "node",
      "id": 9607494164,
      "lat": 53.4800117,
      "lon": -2.2411134,
      "tags": {
        "addr:city": "Manchester",
        "addr:housenumber": "55",
        "addr:postcode": "M2 2BY",
        "addr:street": "Spring Gardens",
        "amenity": "cafe",
        "name": "Take 5 @ 55"
      }
    },
    {
      "type": "node",
      "id": 9607494166,
      "lat": 53.4802347,
      "lon": -2.2413294,
      "tags": {
        "addr:city": "Manchester",
        "addr:housenumber": "55",
        "addr:postcode": "M2 2BY",
        "addr:street": "Spring Gardens",
        "amenity": "cafe",
        "name": "L\u00e4ttsam"
      }
    },
    {
      "type": "node",
      "id": 11244286234,
      "lat": 53.4802345,
      "lon": -2.2378689,
      "tags": {
        "addr:city": "Manchester",
        "addr:postcode": "M1 4AJ",
        "addr:street": "Piccadilly Plaza",
        "amenity": "cafe",
        "cuisine": "Tea",
        "indoor_seating": "yes",
        "name": "T4. (Tea for you)",
        "outdoor_seating": "no",
        "phone": "+44 161 236 1561",
        "website": "https://www.t4.co.uk"
      }
    },
    {
      "type": "node",
      "id": 11736724752,
      "lat": 53.4760623,
      "lon": -2.2380634,
      "tags": {
        "addr:city": "Manchester",
        "addr:housenumber": "113",
        "addr:postcode": "M1 3BF",
        "addr:street": "Princess Street",
        "amenity": "cafe",
        "brand": "Starbucks",
        "brand:wikidata": "Q37158",
        "check_date": "2025-06-07",
        "cuisine": "coffee_shop",
        "name": "Starbucks",
        "official_name": "Starbucks Coffee",
        "takeaway": "yes"
      }
    },
    {
      "type": "node",
      "id": 12729056169,
      "lat": 53.4747655,
      "lon": -2.2382185,
      "tags": {
        "amenity": "cafe",
        "diet:vegan": "yes",
        "diet:vegetarian": "yes",
        "name": "Seesaw",
        "toilets:wheelchair": "yes",
        "wheelchair": "yes"
      }
    },
    {
      "type": "node",
      "id": 13021427220,
      "lat": 53.4760456,
      "lon": -2.2368757,
      "tags": {
        "amenity": "cafe",
        "name": "Fluffy Fluffy",
        "opening_hours": "Su-Th 10:00-20:00; Fr,Sa 10:00-21:00"
      }
    },
    {
      "type": "node",
      "id": 760520763,
      "lat": 53.4789019,
      "lon": -2.232327,
      "tags": {
        "addr:city": "Manchester",
        "addr:housename": "Gateway House",
        "addr:street": "Piccadilly Station Approach",
        "addr:unit": "1",
        "amenity": "cafe",
        "brand": "Caff\u00e8 Nero",
        "brand:wikidata": "Q675808",
        "brand:wikipedia": "en:Caff\u00e8 Nero",
        "check_date": "2025-11-17",
        "check_date:opening_hours": "2025-11-17",
        "cuisine": "coffee_shop",
        "fhrs:id": "331286",
        "indoor_seating": "yes",
        "name": "Caff\u00e8 Nero",
        "opening_hours": "Mo-Sa 07:00-19:00; Su 08:30-18:00",
        "opening_hours:signed": "no",
        "outdoor_seating": "yes",
        "ref:vatin": "795871268",
        "takeaway": "yes",
        "website": "https://www.caffenero.com/uk/stores/manchester-piccadilly-approach",
        "wheelchair": "limited"
      }
    },
    {
      "type": "node",
      "id": 2533759678,
      "lat": 53.4802673,
      "lon": -2.2322287,
      "tags": {
        "addr:city": "Manchester",
        "addr:country": "GB",
        "addr:housenumber": "77",
        "addr:postcode": "M1 2HG",
        "addr:street": "Dale Street",
        "amenity": "cafe",
        "check_date": "2025-02-21",
        "fhrs:id": "1816797",
        "name": "North Star"
      }
    },
    {
      "type": "node",
      "id": 2710873917,
      "lat": 53.4741441,
      "lon": -2.2347702,
      "tags": {
        "amenity": "cafe",
        "name": "The Coffee Bean"
      }
    },
    {
      "type": "node",
      "id": 2723714740,
      "lat": 53.4776637,
      "lon": -2.2331249,
      "tags": {
        "amenity": "cafe",
        "cuisine": "coffee_shop",
        "drive_in": "no",
        "drive_through": "no",
        "name": "Hive Coffee"
      }
    },
    {
      "type": "node",
      "id": 2739595573,
      "lat": 53.4805571,
      "lon": -2.2345479,
      "tags": {
        "addr:city": "Manchester",
        "addr:country": "GB",
        "addr:housenumber": "1",
        "addr:postcode": "M1 3BE",
        "addr:street": "Portland Street",
        "addr:unit": "Unit 1",
        "amenity": "cafe",
        "brand": "Costa",
        "brand:wikidata": "Q608845",
        "brand:wikipedia": "en:Costa Coffee",
        "changing_table": "yes",
        "check_date": "2025-07-06",
        "cuisine": "coffee_shop",
        "fhrs:id": "1817443",
        "internet_access": "wlan",
        "internet_access:fee": "no",
        "name": "Costa",
        "outdoor_seating": "no",
        "smoking": "no",
        "takeaway": "yes",
        "toilets": "yes",
        "toilets:wheelchair": "yes",
        "wheelchair": "yes"
      }
    },
    {
      "type": "node",
      "id": 2836724394,
      "lat": 53.4764098,
      "lon": -2.2291831,
      "tags": {
        "addr:city": "Manchester",
        "addr:housename": "Satellite Lounge",
        "addr:place": "Piccadilly Station",
        "addr:postcode": "M60 7RA",
        "addr:unit": "Unit 6",
        "amenity": "cafe",
        "brand": "Costa",
        "brand:wikidata": "Q608845",
        "brand:wikipedia": "en:Costa Coffee",
        "check_date": "2023-03-26",
        "cuisine": "coffee_shop",
        "fhrs:id": "716152",
        "level": "2",
        "name": "Costa",
        "takeaway": "yes"
      }
    },
    {
      "type": "node",
      "id": 2836724395,
      "lat": 53.4769367,
      "lon": -2.2313627,
      "tags": {
        "addr:city": "Manchester",
        "addr:housename": "Piccadilly Station",
        "addr:postcode": "M1 2PA",
        "addr:street": "Piccadilly Station Approach",
        "addr:unit": "Coffee Kiosk",
        "amenity": "cafe",
        "brand": "Costa",
        "brand:wikidata": "Q608845",
        "brand:wikipedia": "en:Costa Coffee",
        "check_date": "2023-06-05",
        "cuisine": "coffee_shop",
        "fhrs:id": "1819713",
        "fhrs:local_authority_id": "AC-072024-014337",
        "level": "1",
        "name": "Costa",
        "source:addr": "FHRS Open Data",
        "takeaway": "yes",
        "wheelchair": "yes"
      }
    },
    {
      "type": "node",
      "id": 3130331629,
      "lat": 53.477541,
      "lon": -2.231554,
      "tags": {
        "addr:city": "Manchester",
        "addr:housename": "Piccadilly Station",
        "addr:postcode": "M1 2BN",
        "addr:street": "Piccadilly Station Approach",
        "addr:unit": "Unit 2",
        "amenity": "cafe",
        "brand": "Caff\u00e8 Nero",
        "brand:wikidata": "Q675808",
        "brand:wikipedia": "en:Caff\u00e8 Nero",
        "check_date": "2024-08-22",
        "check_date:opening_hours": "2024-08-22",
        "cuisine": "coffee_shop",
        "fhrs:id": "1819754",
        "fhrs:local_authority_id": "AC-072024-014378",
        "indoor_seating": "no",
        "internet_access": "wlan",
        "internet_access:fee": "no",
        "level": "2",
        "name": "Caff\u00e8 Nero",
        "opening_hours": "Mo-Fr 04:00-22:00; Sa 05:00-22:00; Su 07:00-21:00",
        "outdoor_seating": "yes",
        "smoking": "no",
        "source:addr": "FHRS Open Data",
        "takeaway": "yes",
        "website": "https://www.caffenero.com/uk/stores/manchester-piccadilly-station",
        "wheelchair": "yes"
      }
    },
    {
      "type": "node",
      "id": 3418588823,
      "lat": 53.4794081,
      "lon": -2.2333642,
      "tags": {
        "addr:city": "Manchester",
        "addr:country": "GB",
        "addr:housenumber": "1-3",
        "addr:postcode": "M1 1LZ",
        "addr:street": "Piccadilly",
        "amenity": "cafe",
        "brand": "Starbucks",
        "brand:wikidata": "Q37158",
        "brand:wikipedia": "en:Starbucks",
        "cuisine": "coffee_shop",
        "name": "Starbucks",
        "official_name": "Starbucks Coffee",
        "operator": "Malmaison",
        "takeaway": "yes"
      }
    },
    {
      "type": "node",
      "id": 3597105850,
      "lat": 53.4774888,
      "lon": -2.2312141,
      "tags": {
        "addr:city": "Manchester",
        "addr:housename": "Piccadilly Station",
        "addr:postcode": "M1 2BN",
        "addr:street": "Piccadilly Station Approach",
        "amenity": "cafe",
        "brand": "Starbucks",
        "brand:wikidata": "Q37158",
        "brand:wikipedia": "en:Starbucks",
        "check_date": "2023-12-01",
        "cuisine": "coffee_shop",
        "fhrs:id": "1820182",
        "fhrs:local_authority_id": "AC-072024-014935",
        "level": "2",
        "name": "Starbucks",
        "official_name": "Starbucks Coffee",
        "source:addr": "FHRS Open Data",
        "takeaway": "yes",
        "website": "https://www.starbucks.com/store-locator/store/1022264/manchester-piccadilly-station-manchester-piccadilly-station-manchester-eng-m-60-"
      }
    },
    {
      "type": "node",
      "id": 6022804978,
      "lat": 53.4786651,
      "lon": -2.232029,
      "tags": {
        "addr:city": "Manchester",
        "addr:housename": "Gateway House",
        "addr:postcode": "M1 2GH",
        "addr:street": "Piccadilly Station Approach",
        "addr:unit": "5",
        "amenity": "cafe",
        "brand": "Starbucks",
        "brand:wikidata": "Q37158",
        "check_date": "2024-07-22",
        "cuisine": "coffee_shop",
        "fhrs:id": "1817678",
        "fhrs:local_authority_id": "AC-072024-006479",
        "indoor_seating": "yes",
        "name": "Starbucks",
        "official_name": "Starbucks Coffee",
        "opening_hours": "Mo-Fr 06:30-18:00; Sa 08:00-18:30; Su,PH 08:00-18:00",
        "outdoor_seating": "no",
        "source:addr": "FHRS Open Data",
        "takeaway": "yes"
      }
    },
    {
      "type": "node",
      "id": 6022804981,
      "lat": 53.4788262,
      "lon": -2.2322511,
      "tags": {
        "addr:city": "Manchester",
        "addr:housename": "Gateway House",
        "addr:postcode": "M1 2GH",
        "addr:street": "Piccadilly Station Approach",
        "addr:unit": "1",
        "amenity": "cafe",
        "brand": "Black Sheep Coffee",
        "brand:wikidata": "Q109745011",
        "check_date": "2025-11-17",
        "cuisine": "coffee_shop",
        "fhrs:id": "1821265",
        "fhrs:local_authority_id": "AC-072024-016231",
        "indoor_seating": "yes",
        "name": "Black Sheep Coffee",
        "opening_hours": "Mo-Fr 06:00-19:00; Sa 06:00-21:00; Su 06:30-20:00",
        "outdoor_seating": "yes",
        "source:addr": "FHRS Open Data",
        "takeaway": "yes",
        "website": "https://blacksheepcoffee.co.uk/blogs/locations/manchester-piccadilly-station"
      }
    },
    {
      "type": "node",
      "id": 9146851538,
      "lat": 53.4783694,
      "lon": -2.2317892,
      "tags": {
        "addr:city": "Manchester",
        "addr:housename": "Gateway House",
        "addr:postcode": "M1 2GH",
        "addr:street": "Piccadilly Station Approach",
        "amenity": "cafe",
        "check_date": "2025-11-17",
        "check_date:opening_hours": "2025-11-17",
        "cuisine": "coffee_shop",
        "fhrs:id": "1821136",
        "fhrs:local_authority_id": "AC-072024-016085",
        "indoor_seating": "yes",
        "name": "Moose Coffee",
        "opening_hours:signed": "no",
        "outdoor_seating": "yes",
        "source:addr": "FHRS Open Data"
      }
    },
    {
      "type": "node",
      "id": 357163891,
      "lat": 53.4833704,
      "lon": -2.235176,
      "tags": {
        "addr:city": "Manchester",
        "addr:housenumber": "1",
        "addr:postcode": "M4 1LP",
        "addr:street": "Hilton Street",
        "amenity": "cafe",
        "fhrs:id": "1821421",
        "name": "Rustica"
      }
    },
    {
      "type": "node",
      "id": 1436093078,
      "lat": 53.4829305,
      "lon": -2.2377649,
      "tags": {
        "addr:city": "Manchester",
        "addr:housenumber": "24",
        "addr:postcode": "M4 1PN",
        "addr:street": "Church Street",
        "amenity": "cafe",
        "name": "Seed & Cherry",
        "wheelchair": "limited"
      }
    },
    {
      "type": "node",
      "id": 1436096930,
      "lat": 53.4837644,
      "lon": -2.2378765,
      "tags": {
        "addr:city": "Manchester",
        "addr:country": "GB",
        "addr:housenumber": "16-20",
        "addr:postcode": "M4 1DZ",
        "addr:street": "Turner Street",
        "amenity": "cafe",
        "cuisine": "international;juice",
        "diet:gluten_free": "yes",
        "diet:vegan": "only",
        "internet_access": "wlan",
        "name": "Earth Vegetarian Cafe and Juice Bar",
        "opening_hours": "Mo-Fr 10:00-16:00; Sa 10:00-17:00",
        "phone": "+44 161 834 1996",
        "website": "http://earthcafe.co"
      }
    },
    {
      "type": "node",
      "id": 1526510924,
      "lat": 53.4818472,
      "lon": -2.2381114,
      "tags": {
        "addr:city": "Manchester",
        "addr:country": "GB",
        "addr:housenumber": "1-3",
        "addr:postcode": "M1 1LZ",
        "addr:street": "Piccadilly",
        "air_conditioning": "yes",
        "amenity": "cafe",
        "brand": "Starbucks",
        "brand:wikidata": "Q37158",
        "brand:wikipedia": "en:Starbucks",
        "cuisine": "coffee_shop",
        "name": "Starbucks",
        "official_name": "Starbucks Coffee",
        "takeaway": "yes",
        "website": "https://www.starbucks.com/store-locator/store/2746/manchester-market-street-piccadilly-market-st-manchester-eng-m-1-1-lz-gb",
        "wheelchair": "yes"
      }
    },
    {
      "type": "node",
      "id": 2626235911,
      "lat": 53.482577,
      "lon": -2.2354271,
      "tags": {
        "addr:city": "Manchester",
        "addr:country": "GB",
        "addr:housenumber": "20",
        "addr:postcode": "M1 1JN",
        "addr:street": "Oldham Street",
        "amenity": "cafe",
        "fhrs:id": "1816885",
        "name": "Fig + Sparrow",
        "website": "https://www.figandsparrow.co.uk/"
      }
    },
    {
      "type": "node",
      "id": 2698021390,
      "lat": 53.4817331,
      "lon": -2.2387055,
      "tags": {
        "addr:city": "Manchester",
        "addr:housenumber": "122a",
        "addr:postcode": "M1 1WA",
        "addr:street": "Market Street",
        "amenity": "cafe",
        "brand": "Caff\u00e8 Nero",
        "brand:wikidata": "Q675808",
        "brand:wikipedia": "en:Caff\u00e8 Nero",
        "check_date": "2024-10-27",
        "check_date:diet:vegetarian": "2024-10-27",
        "cuisine": "coffee_shop",
        "diet:vegetarian": "yes",
        "fhrs:id": "1819893",
        "internet_access": "wlan",
        "internet_access:fee": "no",
        "name": "Caff\u00e8 Nero",
        "opening_hours": "Mo-Fr 06:30-20:00; Sa 07:00-20:00; Su 07:30-20:00",
        "outdoor_seating": "yes",
        "smoking": "no",
        "takeaway": "yes",
        "website": "https://www.caffenero.com/uk/stores/manchester-market-st",
        "wheelchair": "limited"
      }
    },
    {
      "type": "node",
      "id": 2698021677,
      "lat": 53.4817056,
      "lon": -2.2385749,
      "tags": {
        "addr:city": "Manchester",
        "addr:housenumber": "124-126",
        "addr:postcode": "M1 1WA",
        "addr:street": "Market Street",
        "amenity": "cafe",
        "brand": "Costa",
        "brand:wikidata": "Q608845",
        "brand:wikipedia": "en:Costa Coffee",
        "cuisine": "coffee_shop",
        "diet:vegetarian": "yes",
        "fhrs:id": "1820906",
        "internet_access": "wlan",
        "internet_access:fee": "no",
        "name": "Costa",
        "opening_hours": "Mo-Fr 06:00-21:00; Sa 07:00-21:00; Su 08:00-19:00",
        "smoking": "no",
        "takeaway": "yes",
        "wheelchair": "yes"
      }
    },
    {
      "type": "node",
      "id": 3129236029,
      "lat": 53.4822294,
      "lon": -2.2359132,
      "tags": {
        "addr:city": "Manchester",
        "addr:housename": "Central Buildings",
        "addr:postcode": "M1 1JQ",
        "addr:street": "Oldham Street",
        "amenity": "cafe",
        "name": "Morning Glory",
        "opening_hours": "Mo-Fr 08:00-15:30; Sa 09:00-18:00; Su 09:00-15:30"
      }
    },
    {
      "type": "node",
      "id": 3260875382,
      "lat": 53.4835252,
      "lon": -2.23497,
      "tags": {
        "addr:city": "Manchester",
        "addr:country": "GB",
        "addr:housenumber": "60",
        "addr:postcode": "M4 1LG",
        "addr:street": "Tib Street",
        "amenity": "cafe",
        "cuisine": "tea",
        "fhrs:id": "1821412",
        "food": "yes",
        "name": "Sugar Junction",
        "website": "https://www.sugarjunction.co.uk/"
      }
    },
    {
      "type": "node",
      "id": 4061255877,
      "lat": 53.4843505,
      "lon": -2.2355425,
      "tags": {
        "addr:city": "Manchester",
        "addr:housename": "Manchester Craft and Design Centre",
        "addr:housenumber": "17",
        "addr:postcode": "M4 5JD",
        "addr:street": "Oak Street",
        "amenity": "cafe",
        "cuisine": "coffee_shop",
        "name": "Oak Street Cafe"
      }
    },
    {
      "type": "node",
      "id": 4295921625,
      "lat": 53.4830025,
      "lon": -2.2393613,
      "tags": {
        "addr:city": "Manchester",
        "addr:postcode": "M4 2HU",
        "addr:street": "High Street",
        "addr:unit": "182a",
        "amenity": "cafe",
        "fhrs:id": "1820837",
        "name": "Rowntrees Cafe",
        "wheelchair": "limited"
      }
    },
    {
      "type": "node",
      "id": 6363510748,
      "lat": 53.482932,
      "lon": -2.2349403,
      "tags": {
        "addr:city": "Manchester",
        "addr:country": "GB",
        "addr:housenumber": "34-36",
        "addr:postcode": "M1 1JN",
        "addr:street": "Oldham Street",
        "amenity": "cafe",
        "fhrs:id": "1819668",
        "name": "Nibble"
      }
    },
    {
      "type": "node",
      "id": 6363510772,
      "lat": 53.4827446,
      "lon": -2.2359075,
      "tags": {
        "addr:city": "Manchester",
        "addr:country": "GB",
        "addr:housenumber": "57",
        "addr:postcode": "M4 1PD",
        "addr:street": "Church Street",
        "amenity": "cafe",
        "cuisine": "tea",
        "fhrs:id": "1819740",
        "name": "Bird & Blend Tea Co",
        "wheelchair": "no"
      }
    },
    {
      "type": "node",
      "id": 6363510778,
      "lat": 53.4831296,
      "lon": -2.2356651,
      "tags": {
        "addr:city": "Manchester",
        "addr:country": "GB",
        "addr:housenumber": "42",
        "addr:postcode": "M4 1LA",
        "addr:street": "Tib Street",
        "amenity": "cafe",
        "fhrs:id": "1819124",
        "indoor_seating": "yes",
        "name": "Evelyns",
        "outdoor_seating": "no"
      }
    },
    {
      "type": "node",
      "id": 9600975149,
      "lat": 53.4822724,
      "lon": -2.2405954,
      "tags": {
        "addr:city": "Manchester",
        "addr:housenumber": "78",
        "addr:postcode": "M1 1PD",
        "addr:street": "Market Street",
        "amenity": "cafe",
        "cuisine": "bubble_tea",
        "fhrs:id": "1821124",
        "indoor_seating": "yes",
        "name": "Gong Cha",
        "outdoor_seating": "no",
        "wheelchair": "yes"
      }
    },
    {
      "type": "node",
      "id": 9877486373,
      "lat": 53.4834284,
      "lon": -2.2351156,
      "tags": {
        "addr:city": "Manchester",
        "addr:housenumber": "56",
        "addr:postcode": "M4 1LG",
        "addr:street": "Tib Street",
        "amenity": "cafe",
        "contact:instagram": "justbetweenfriendscoffee",
        "fhrs:id": "1831129",
        "name": "Just Between Friends Coffee",
        "opening_hours": "Mo-Fr 08:00-16:00; Sa-Su 08:30-16:00"
      }
    },
    {
      "type": "node",
      "id": 11092968543,
      "lat": 53.4823087,
      "lon": -2.2397035,
      "tags": {
        "addr:city": "Manchester",
        "addr:housenumber": "107",
        "addr:postcode": "M1 1NN",
        "addr:street": "Market Street",
        "amenity": "cafe",
        "brand": "Tim Hortons",
        "brand:wikidata": "Q175106",
        "check_date": "2023-08-14",
        "cuisine": "coffee_shop",
        "fhrs:id": "1819587",
        "level": "0",
        "name": "Tim Hortons",
        "takeaway": "yes",
        "wheelchair": "yes"
      }
    },
    {
      "type": "node",
      "id": 11092968583,
      "lat": 53.4830806,
      "lon": -2.2400783,
      "tags": {
        "addr:city": "Manchester",
        "addr:housename": "Arndale Centre",
        "addr:postcode": "M4 3AJ",
        "addr:street": "Corporation Street",
        "level": "0",
        "name": "Coffee Break",
        "shop": "coffee",
        "wheelchair": "yes"
      }
    },
    {
      "type": "node",
      "id": 12246750507,
      "lat": 53.4828121,
      "lon": -2.2370842,
      "tags": {
        "addr:city": "Manchester",
        "addr:housenumber": "26",
        "addr:postcode": "M4 1AE",
        "addr:street": "Tib Street",
        "addr:unit": "18",
        "amenity": "cafe",
        "check_date": "2024-10-12",
        "cuisine": "coffee_shop",
        "diet:vegetarian": "yes",
        "indoor_seating": "yes",
        "internet_access": "wlan",
        "internet_access:fee": "customers",
        "name": "PappaRoti",
        "outdoor_seating": "no",
        "payment:cash": "yes",
        "payment:mastercard": "yes",
        "payment:visa": "yes",
        "payment:visa_debit": "yes",
        "source": "survey",
        "takeaway": "yes",
        "toilets": "yes",
        "toilets:wheelchair": "yes",
        "wheelchair": "yes"
      }
    },
    {
      "type": "node",
      "id": 13365827660,
      "lat": 53.4825081,
      "lon": -2.2361654,
      "tags": {
        "addr:housename": "Afflecks",
        "addr:street": "Church Street",
        "amenity": "cafe",
        "cuisine": "italian;sandwich",
        "level": "1",
        "name": "Panino 23",
        "website": "https://www.instagram.com/panino23_mcr/"
      }
    },
    {
      "type": "node",
      "id": 13365827681,
      "lat": 53.4825845,
      "lon": -2.2363045,
      "tags": {
        "addr:housename": "Afflecks",
        "addr:street": "Church Street",
        "amenity": "cafe",
        "cuisine": "milkshake;bubble_tea;dessert",
        "level": "2",
        "name": "Animaid Cafe",
        "outdoor_seating": "no",
        "website": "https://www.instagram.com/animaid_cafe/"
      }
    },
    {
      "type": "node",
      "id": 13374638121,
      "lat": 53.4826505,
      "lon": -2.2363046,
      "tags": {
        "addr:city": "Manchester",
        "addr:housename": "Afflecks",
        "addr:street": "Church Street",
        "amenity": "cafe",
        "level": "3",
        "name": "Killmonster Cafe",
        "website": "https://killmonstercafe.co.uk/"
      }
    },
    {
      "type": "node",
      "id": 13374638136,
      "lat": 53.4826025,
      "lon": -2.2365097,
      "tags": {
        "addr:city": "Manchester",
        "addr:housename": "Afflecks",
        "addr:street": "Church Street",
        "amenity": "cafe",
        "level": "3",
        "name": "Third Floor Rising",
        "outdoor_seating": "no"
      }
    },
    {
      "type": "node",
      "id": 412821349,
      "lat": 53.4811141,
      "lon": -2.2341689,
      "tags": {
        "addr:city": "Manchester",
        "addr:country": "GB",
        "addr:housenumber": "11",
        "addr:postcode": "M1 1HF",
        "addr:street": "Newton Street",
        "amenity": "cafe",
        "fhrs:id": "1818965",
        "name": "Super Sandwich"
      }
    },
    {
      "type": "node",
      "id": 413373377,
      "lat": 53.4841433,
      "lon": -2.2332547,
      "tags": {
        "addr:city": "Manchester",
        "addr:country": "GB",
        "addr:housenumber": "80-82",
        "addr:postcode": "M4 1LF",
        "addr:street": "Oldham Street",
        "amenity": "cafe",
        "cuisine": "british",
        "fhrs:id": "1819218",
        "internet_access": "wlan",
        "internet_access:fee": "no",
        "name": "Koffee Pot",
        "outdoor_seating": "yes",
        "smoking": "outside"
      }
    },
    {
      "type": "node",
      "id": 2671310560,
      "lat": 53.4811345,
      "lon": -2.23246,
      "tags": {
        "addr:city": "Manchester",
        "addr:country": "GB",
        "addr:housename": "Takk",
        "addr:housenumber": "6",
        "addr:postcode": "M1 2FF",
        "addr:street": "Tariff Street",
        "amenity": "cafe",
        "fhrs:id": "1822080",
        "internet_access": "wlan",
        "name": "ASAP Coffee",
        "wheelchair": "no"
      }
    },
    {
      "type": "node",
      "id": 4061255880,
      "lat": 53.4822614,
      "lon": -2.2344428,
      "tags": {
        "addr:city": "Manchester",
        "addr:housename": "Sevendale House",
        "addr:postcode": "M1 1WD",
        "addr:street": "Lever Street",
        "amenity": "cafe",
        "check_date": "2025-04-13",
        "check_date:diet:vegetarian": "2025-04-13",
        "cuisine": "coffee_shop",
        "diet:vegetarian": "yes",
        "name": "Foundation Coffee Shop"
      }
    },
    {
      "type": "node",
      "id": 5293569922,
      "lat": 53.4820736,
      "lon": -2.2329917,
      "tags": {
        "addr:city": "Manchester",
        "addr:country": "GB",
        "addr:housenumber": "20",
        "addr:postcode": "M1 1FR",
        "addr:street": "Hilton Street",
        "amenity": "cafe",
        "cuisine": "sandwich;breakfast;cake;tea;local;coffee_shop",
        "fhrs:id": "1820167",
        "internet_access": "wlan",
        "name": "Ezra & Gil",
        "website": "https://www.ezraandgil.com/"
      }
    },
    {
      "type": "node",
      "id": 5654604174,
      "lat": 53.4834704,
      "lon": -2.229987,
      "tags": {
        "addr:city": "Manchester",
        "addr:housenumber": "59",
        "addr:postcode": "M4 5AB",
        "addr:street": "Great Ancoats Street",
        "amenity": "cafe",
        "contact:city": "Manchester",
        "contact:country": "GB",
        "contact:facebook": "https://www.facebook.com/cha.ology",
        "contact:housenumber": "67",
        "contact:instagram": "cha.ology",
        "contact:postcode": "M4 5AB",
        "contact:street": "Great Ancoats Street",
        "contact:website": "https://www.cha-ology.com",
        "cuisine": "japanese",
        "fhrs:id": "1819143",
        "name": "Cha Ology",
        "opening_hours": "\"by appointment\""
      }
    },
    {
      "type": "node",
      "id": 5690650330,
      "lat": 53.4828857,
      "lon": -2.2339866,
      "tags": {
        "addr:city": "Manchester",
        "addr:country": "GB",
        "addr:housenumber": "3a",
        "addr:postcode": "M1 1DN",
        "addr:street": "Stevenson Square",
        "amenity": "cafe",
        "check_date": "2022-10-02",
        "contact:facebook": "https://www.facebook.com/ChaiLatteCafe",
        "cuisine": "coffee_shop",
        "fhrs:id": "1816791",
        "name": "Chai Latte",
        "outdoor_seating": "yes",
        "wheelchair": "yes"
      }
    },
    {
      "type": "node",
      "id": 5760475716,
      "lat": 53.481194,
      "lon": -2.2329511,
      "tags": {
        "addr:city": "Manchester",
        "addr:country": "GB",
        "addr:housename": "Dale House",
        "addr:housenumber": "35",
        "addr:postcode": "M1 2HF",
        "addr:street": "Dale Street",
        "amenity": "cafe",
        "cuisine": "coffee_shop",
        "fhrs:id": "1819793",
        "internet_access": "wlan",
        "name": "Idle Hands",
        "opening_hours": "Mo-Th 07:30-18:00; Fr 07:30-23:00; Sa 09:00-23:00; Su 10:00-17:00",
        "outdoor_seating": "no",
        "smoking": "no",
        "website": "http://www.idlehandscoffee.com/"
      }
    },
    {
      "type": "node",
      "id": 6358775747,
      "lat": 53.4842102,
      "lon": -2.2331657,
      "tags": {
        "addr:city": "Manchester",
        "addr:country": "GB",
        "addr:housenumber": "88",
        "addr:postcode": "M4 1LF",
        "addr:street": "Oldham Street",
        "amenity": "cafe",
        "fhrs:id": "1819640",
        "name": "Black Milk"
      }
    },
    {
      "type": "node",
      "id": 6363510746,
      "lat": 53.4829032,
      "lon": -2.234674,
      "tags": {
        "addr:city": "Manchester",
        "addr:country": "GB",
        "addr:housenumber": "10-14",
        "addr:postcode": "M1 1JF",
        "addr:street": "Hilton Street",
        "amenity": "cafe",
        "fhrs:id": "1816552",
        "name": "Another Heart To Feed",
        "old_name": "Liberte"
      }
    },
    {
      "type": "node",
      "id": 6405139593,
      "lat": 53.4816749,
      "lon": -2.2319911,
      "tags": {
        "addr:city": "Manchester",
        "addr:country": "GB",
        "addr:housenumber": "47",
        "addr:postcode": "M1 2EF",
        "addr:street": "Hilton Street",
        "amenity": "cafe",
        "name": "Williams Cafe"
      }
    },
    {
      "type": "node",
      "id": 8637214278,
      "lat": 53.4844972,
      "lon": -2.2286548,
      "tags": {
        "amenity": "cafe",
        "name": "Cafe Cotton"
      }
    },
    {
      "type": "node",
      "id": 9131640704,
      "lat": 53.4836186,
      "lon": -2.230277,
      "tags": {
        "amenity": "cafe",
        "check_date:opening_hours": "2025-11-20",
        "cuisine": "coffee_shop",
        "name": "Flakey",
        "opening_hours:signed": "no"
      }
    },
    {
      "type": "node",
      "id": 9131640707,
      "lat": 53.4843199,
      "lon": -2.2315226,
      "tags": {
        "amenity": "cafe",
        "name": "Off The Press"
      }
    },
    {
      "type": "node",
      "id": 9132416594,
      "lat": 53.4829381,
      "lon": -2.2340968,
      "tags": {
        "addr:city": "Manchester",
        "addr:housenumber": "1",
        "addr:postcode": "M1 1DN",
        "addr:street": "Stevenson Square",
        "amenity": "cafe",
        "fhrs:id": "1816256",
        "name": "Get Baked"
      }
    },
    {
      "type": "node",
      "id": 10068442591,
      "lat": 53.4828163,
      "lon": -2.2338379,
      "tags": {
        "addr:city": "Manchester",
        "addr:housenumber": "5A",
        "addr:postcode": "M1 1DN",
        "addr:street": "Stevenson Square",
        "amenity": "cafe",
        "check_date": "2025-02-28",
        "cuisine": "breakfast;sandwich",
        "fhrs:id": "1821272",
        "name": "Eastern Bloc",
        "note": "Making a different node for the cafe part cause it is hard to combine with the vinyl part they all do.",
        "outdoor_seating": "yes"
      }
    },
    {
      "type": "node",
      "id": 10118818805,
      "lat": 53.4816619,
      "lon": -2.2322917,
      "tags": {
        "addr:city": "Manchester",
        "addr:housenumber": "26-28",
        "addr:postcode": "M1 2EH",
        "addr:street": "Hilton Street",
        "amenity": "cafe",
        "bar": "yes",
        "changing_table": "yes",
        "changing_table:fee": "no",
        "changing_table:location": "wheelchair_toilet",
        "diet:vegan": "yes",
        "diet:vegetarian": "yes",
        "indoor_seating": "yes",
        "internet_access": "wlan",
        "internet_access:fee": "no",
        "kids_area": "no",
        "kids_area:fee": "no",
        "kids_area:indoor": "no",
        "kids_area:outdoor": "no",
        "kids_area:supervised": "no",
        "level": "0",
        "name": "Feel Good Club",
        "opening_hours": "Mo-We 09:00-18:00; Th-Fr 09:00-21:00; Su 10:00-18:00",
        "outdoor_seating": "yes",
        "smoking": "outside",
        "toilets": "yes",
        "toilets:wheelchair": "yes",
        "website": "https://www.feelgoodclub.co/",
        "wheelchair": "yes"
      }
    },
    {
      "type": "node",
      "id": 10593673381,
      "lat": 53.4843583,
      "lon": -2.2340531,
      "tags": {
        "addr:city": "Manchester",
        "addr:housenumber": "53",
        "addr:postcode": "M4 1LS",
        "addr:street": "Tib Street",
        "amenity": "cafe",
        "fhrs:id": "1819777",
        "name": "Siop Shop"
      }
    },
    {
      "type": "node",
      "id": 10675966165,
      "lat": 53.4814532,
      "lon": -2.2313722,
      "tags": {
        "addr:city": "Manchester",
        "addr:housenumber": "18",
        "addr:postcode": "M1 2FN",
        "addr:street": "Tariff Street",
        "amenity": "cafe",
        "cuisine": "coffee_shop;italian",
        "internet_access": "wlan",
        "internet_access:fee": "customers",
        "name": "La Collina",
        "ref:vatin": "336395971"
      }
    },
    {
      "type": "node",
      "id": 11260274656,
      "lat": 53.4851447,
      "lon": -2.2334513,
      "tags": {
        "addr:city": "Manchester",
        "addr:housenumber": "12",
        "addr:postcode": "M4 5JN",
        "addr:street": "Swan Street",
        "amenity": "cafe",
        "fhrs:id": "1817701",
        "name": "Cali's Cafe"
      }
    },
    {
      "type": "node",
      "id": 11557036269,
      "lat": 53.483522,
      "lon": -2.2308208,
      "tags": {
        "amenity": "cafe",
        "check_date": "2025-11-20",
        "check_date:opening_hours": "2025-11-20",
        "name": "Gran T's",
        "opening_hours": "Mo-Fr 07:00-17:00, Sa 08:00-17:00, Su 09:00-16:00, Th-Sa 18:00-22:00"
      }
    },
    {
      "type": "node",
      "id": 6437164299,
      "lat": 53.4754532,
      "lon": -2.2220412,
      "tags": {
        "addr:city": "Manchester",
        "addr:country": "GB",
        "addr:housenumber": "100",
        "addr:postcode": "M1 2WR",
        "addr:street": "Fairfield Street",
        "amenity": "cafe",
        "name": "Coffee Shop"
      }
    },
    {
      "type": "node",
      "id": 5654604170,
      "lat": 53.4830067,
      "lon": -2.2280008,
      "tags": {
        "amenity": "cafe",
        "contact:city": "Manchester",
        "contact:country": "GB",
        "contact:housenumber": "7",
        "contact:postcode": "M4 5BA",
        "contact:street": "Redhill Street",
        "contact:website": "https://www.watersidecoffeeancoats.co.uk",
        "name": "Waterside Coffee"
      }
    },
    {
      "type": "node",
      "id": 7844011212,
      "lat": 53.48347,
      "lon": -2.2276419,
      "tags": {
        "name": "Ancoats Coffee Co.",
        "operator": "Ancoats Coffee Co.",
        "shop": "coffee"
      }
    },
    {
      "type": "node",
      "id": 9126955333,
      "lat": 53.4844579,
      "lon": -2.2275431,
      "tags": {
        "addr:city": "Manchester",
        "addr:housenumber": "3",
        "addr:postcode": "M4 6HS",
        "addr:street": "Murray Street",
        "amenity": "cafe",
        "fhrs:id": "1821154",
        "name": "Cocoa Cabana"
      }
    },
    {
      "type": "node",
      "id": 12296987433,
      "lat": 53.4832067,
      "lon": -2.2238485,
      "tags": {
        "amenity": "cafe",
        "name": "Caf\u00e9 90 Delice"
      }
    },
    {
      "type": "node",
      "id": 12529880943,
      "lat": 53.4848436,
      "lon": -2.2261034,
      "tags": {
        "amenity": "cafe",
        "cuisine": "coffee_shop",
        "name": "Just Between Friends"
      }
    },
    {
      "type": "way",
      "id": 1301272710,
      "center": {
        "lat": 53.4836362,
        "lon": -2.2329928
      },
      "tags": {
        "addr:housenumber": "60",
        "addr:street": "Spear Street",
        "amenity": "cafe",
        "building": "yes",
        "name": "Companio",
        "opening_hours": "Tu-Th 08:00-15:00; Fr-Su 08:00-14:00",
        "operator": "Companio Bakery",
        "payment:contactless": "yes",
        "payment:credit_cards": "yes",
        "payment:debit_cards": "yes",
        "phone": "+44 7765 914603",
        "shop": "bakery",
        "website": "https://companiobakery.co.uk"
      }
    },
    {
      "type": "way",
      "id": 389360006,
      "center": {
        "lat": 53.4793144,
        "lon": -2.2219444
      },
      "tags": {
        "addr:city": "Manchester",
        "addr:housenumber": "263",
        "addr:postcode": "M4 7DB",
        "addr:street": "Great Ancoats Street",
        "addr:unit": "Unit 1",
        "air_conditioning": "yes",
        "amenity": "cafe",
        "brand": "Costa",
        "brand:wikidata": "Q608845",
        "brand:wikipedia": "en:Costa Coffee",
        "building:part": "yes",
        "cuisine": "coffee_shop",
        "diet:vegetarian": "yes",
        "fhrs:id": "1816858",
        "level": "0",
        "name": "Costa",
        "opening_hours": "Mo-Th 06:30-18:30; Fr 06:30-18:00; Sa,Su 08:00-18:00",
        "takeaway": "yes"
      }
    }
  ]
}